KUIPER-00035            
1 63748U 25088AA  26012.18507553  .00003406  00000+0  47688-3 0  9994
2 63748  51.9017   3.9804 0005065 245.0025 115.0411 14.79823296 39142
KUIPER-00037            
1 63749U 25088AB  26012.18647178  .00003816  00000+0  52890-3 0  9999
2 63749  51.9008   2.9156 0000366 114.5081 245.5919 14.79965776 39943
KUIPER-00038            
1 63750U 25088AC  26012.13514861 -.00000616  00000+0 -51675-4 0  9996
2 63750  51.9037 348.1661 0004961 255.8361 104.2050 14.79946280 39146
KUIPER-00039            
1 64500U 25134A   26012.04019213  .00005298  00000+0  72256-3 0  9999
2 64500  51.9008 123.5876 0003251 138.9854 221.1354 14.79988750 31685
KUIPER-00040            
1 64501U 25134B   26012.29788399 -.00005176  00000+0 -64775-3 0  9999
2 64501  51.8976 133.5973 0017540  81.5394 278.7555 14.79949323 31567
KUIPER-00041            
1 64502U 25134C   26012.29684446  .00000083  00000+0  40258-4 0  9999
2 64502  51.8988 134.9565 0012489  84.6646 275.5741 14.79929147 31546
KUIPER-00042            
1 64503U 25134D   26011.62539127  .00009664  00000+0  12934-2 0  9993
2 64503  51.8973 133.9339 0012519  91.7697 268.4699 14.79939458 31503
KUIPER-00043            
1 64504U 25134E   26012.30869334  .00004596  00000+0  63160-3 0  9993
2 64504  51.9008 123.3627 0002923 116.3466 243.7797 14.79928231 31718
