<?xml version="1.0" encoding="UTF-8"?>
<ndm xmlns:xsi="http://www.w3.org/2001/XMLSchema-instance" xsi:noNamespaceSchemaLocation="https://sanaregistry.org/r/ndmxml_unqualified/ndmxml-2.0.0-master-2.0.xsd">
<omm id="CCSDS_OMM_VERS" version="2.0">
<header><CREATION_DATE/><ORIGINATOR/></header><body><segment><metadata><OBJECT_NAME>KUIPER-00035</OBJECT_NAME><OBJECT_ID>2025-088AA</OBJECT_ID><CENTER_NAME>EARTH</CENTER_NAME><REF_FRAME>TEME</REF_FRAME><TIME_SYSTEM>UTC</TIME_SYSTEM><MEAN_ELEMENT_THEORY>SGP4</MEAN_ELEMENT_THEORY></metadata><data><meanElements><EPOCH>2026-01-12T04:26:30.525792</EPOCH><MEAN_MOTION>14.79823296</MEAN_MOTION><ECCENTRICITY>.00050654</ECCENTRICITY><INCLINATION>51.9017</INCLINATION><RA_OF_ASC_NODE>3.9804</RA_OF_ASC_NODE><ARG_OF_PERICENTER>245.0025</ARG_OF_PERICENTER><MEAN_ANOMALY>115.0411</MEAN_ANOMALY></meanElements><tleParameters><EPHEMERIS_TYPE>0</EPHEMERIS_TYPE><CLASSIFICATION_TYPE>U</CLASSIFICATION_TYPE><NORAD_CAT_ID>63748</NORAD_CAT_ID><ELEMENT_SET_NO>999</ELEMENT_SET_NO><REV_AT_EPOCH>3914</REV_AT_EPOCH><BSTAR>.47688421E-3</BSTAR><MEAN_MOTION_DOT>.3406E-4</MEAN_MOTION_DOT><MEAN_MOTION_DDOT>0</MEAN_MOTION_DDOT></tleParameters></data></segment></body></omm>
<omm id="CCSDS_OMM_VERS" version="2.0">
<header><CREATION_DATE/><ORIGINATOR/></header><body><segment><metadata><OBJECT_NAME>KUIPER-00037</OBJECT_NAME><OBJECT_ID>2025-088AB</OBJECT_ID><CENTER_NAME>EARTH</CENTER_NAME><REF_FRAME>TEME</REF_FRAME><TIME_SYSTEM>UTC</TIME_SYSTEM><MEAN_ELEMENT_THEORY>SGP4</MEAN_ELEMENT_THEORY></metadata><data><meanElements><EPOCH>2026-01-12T04:28:31.161792</EPOCH><MEAN_MOTION>14.79965776</MEAN_MOTION><ECCENTRICITY>.00003663</ECCENTRICITY><INCLINATION>51.9008</INCLINATION><RA_OF_ASC_NODE>2.9156</RA_OF_ASC_NODE><ARG_OF_PERICENTER>114.5081</ARG_OF_PERICENTER><MEAN_ANOMALY>245.5919</MEAN_ANOMALY></meanElements><tleParameters><EPHEMERIS_TYPE>0</EPHEMERIS_TYPE><CLASSIFICATION_TYPE>U</CLASSIFICATION_TYPE><NORAD_CAT_ID>63749</NORAD_CAT_ID><ELEMENT_SET_NO>999</ELEMENT_SET_NO><REV_AT_EPOCH>3994</REV_AT_EPOCH><BSTAR>.52889859E-3</BSTAR><MEAN_MOTION_DOT>.3816E-4</MEAN_MOTION_DOT><MEAN_MOTION_DDOT>0</MEAN_MOTION_DDOT></tleParameters></data></segment></body></omm>
<omm id="CCSDS_OMM_VERS" version="2.0">
<header><CREATION_DATE/><ORIGINATOR/></header><body><segment><metadata><OBJECT_NAME>KUIPER-00038</OBJECT_NAME><OBJECT_ID>2025-088AC</OBJECT_ID><CENTER_NAME>EARTH</CENTER_NAME><REF_FRAME>TEME</REF_FRAME><TIME_SYSTEM>UTC</TIME_SYSTEM><MEAN_ELEMENT_THEORY>SGP4</MEAN_ELEMENT_THEORY></metadata><data><meanElements><EPOCH>2026-01-12T03:14:36.839904</EPOCH><MEAN_MOTION>14.79946280</MEAN_MOTION><ECCENTRICITY>.00049615</ECCENTRICITY><INCLINATION>51.9037</INCLINATION><RA_OF_ASC_NODE>348.1661</RA_OF_ASC_NODE><ARG_OF_PERICENTER>255.8361</ARG_OF_PERICENTER><MEAN_ANOMALY>104.2050</MEAN_ANOMALY></meanElements><tleParameters><EPHEMERIS_TYPE>0</EPHEMERIS_TYPE><CLASSIFICATION_TYPE>U</CLASSIFICATION_TYPE><NORAD_CAT_ID>63750</NORAD_CAT_ID><ELEMENT_SET_NO>999</ELEMENT_SET_NO><REV_AT_EPOCH>3914</REV_AT_EPOCH><BSTAR>-.51675351E-4</BSTAR><MEAN_MOTION_DOT>-.616E-5</MEAN_MOTION_DOT><MEAN_MOTION_DDOT>0</MEAN_MOTION_DDOT></tleParameters></data></segment></body></omm>
<omm id="CCSDS_OMM_VERS" version="2.0">
<header><CREATION_DATE/><ORIGINATOR/></header><body><segment><metadata><OBJECT_NAME>KUIPER-00039</OBJECT_NAME><OBJECT_ID>2025-134A</OBJECT_ID><CENTER_NAME>EARTH</CENTER_NAME><REF_FRAME>TEME</REF_FRAME><TIME_SYSTEM>UTC</TIME_SYSTEM><MEAN_ELEMENT_THEORY>SGP4</MEAN_ELEMENT_THEORY></metadata><data><meanElements><EPOCH>2026-01-12T00:57:52.600032</EPOCH><MEAN_MOTION>14.79988750</MEAN_MOTION><ECCENTRICITY>.00032514</ECCENTRICITY><INCLINATION>51.9008</INCLINATION><RA_OF_ASC_NODE>123.5876</RA_OF_ASC_NODE><ARG_OF_PERICENTER>138.9854</ARG_OF_PERICENTER><MEAN_ANOMALY>221.1354</MEAN_ANOMALY></meanElements><tleParameters><EPHEMERIS_TYPE>0</EPHEMERIS_TYPE><CLASSIFICATION_TYPE>U</CLASSIFICATION_TYPE><NORAD_CAT_ID>64500</NORAD_CAT_ID><ELEMENT_SET_NO>999</ELEMENT_SET_NO><REV_AT_EPOCH>3168</REV_AT_EPOCH><BSTAR>.72255572E-3</BSTAR><MEAN_MOTION_DOT>.5298E-4</MEAN_MOTION_DOT><MEAN_MOTION_DDOT>0</MEAN_MOTION_DDOT></tleParameters></data></segment></body></omm>
<omm id="CCSDS_OMM_VERS" version="2.0">
<header><CREATION_DATE/><ORIGINATOR/></header><body><segment><metadata><OBJECT_NAME>KUIPER-00040</OBJECT_NAME><OBJECT_ID>2025-134B</OBJECT_ID><CENTER_NAME>EARTH</CENTER_NAME><REF_FRAME>TEME</REF_FRAME><TIME_SYSTEM>UTC</TIME_SYSTEM><MEAN_ELEMENT_THEORY>SGP4</MEAN_ELEMENT_THEORY></metadata><data><meanElements><EPOCH>2026-01-12T07:08:57.176736</EPOCH><MEAN_MOTION>14.79949323</MEAN_MOTION><ECCENTRICITY>.00175401</ECCENTRICITY><INCLINATION>51.8976</INCLINATION><RA_OF_ASC_NODE>133.5973</RA_OF_ASC_NODE><ARG_OF_PERICENTER>81.5394</ARG_OF_PERICENTER><MEAN_ANOMALY>278.7555</MEAN_ANOMALY></meanElements><tleParameters><EPHEMERIS_TYPE>0</EPHEMERIS_TYPE><CLASSIFICATION_TYPE>U</CLASSIFICATION_TYPE><NORAD_CAT_ID>64501</NORAD_CAT_ID><ELEMENT_SET_NO>999</ELEMENT_SET_NO><REV_AT_EPOCH>3156</REV_AT_EPOCH><BSTAR>-.64775013E-3</BSTAR><MEAN_MOTION_DOT>-.5176E-4</MEAN_MOTION_DOT><MEAN_MOTION_DDOT>0</MEAN_MOTION_DDOT></tleParameters></data></segment></body></omm>
<omm id="CCSDS_OMM_VERS" version="2.0">
<header><CREATION_DATE/><ORIGINATOR/></header><body><segment><metadata><OBJECT_NAME>KUIPER-00041</OBJECT_NAME><OBJECT_ID>2025-134C</OBJECT_ID><CENTER_NAME>EARTH</CENTER_NAME><REF_FRAME>TEME</REF_FRAME><TIME_SYSTEM>UTC</TIME_SYSTEM><MEAN_ELEMENT_THEORY>SGP4</MEAN_ELEMENT_THEORY></metadata><data><meanElements><EPOCH>2026-01-12T07:07:27.361344</EPOCH><MEAN_MOTION>14.79929147</MEAN_MOTION><ECCENTRICITY>.00124896</ECCENTRICITY><INCLINATION>51.8988</INCLINATION><RA_OF_ASC_NODE>134.9565</RA_OF_ASC_NODE><ARG_OF_PERICENTER>84.6646</ARG_OF_PERICENTER><MEAN_ANOMALY>275.5741</MEAN_ANOMALY></meanElements><tleParameters><EPHEMERIS_TYPE>0</EPHEMERIS_TYPE><CLASSIFICATION_TYPE>U</CLASSIFICATION_TYPE><NORAD_CAT_ID>64502</NORAD_CAT_ID><ELEMENT_SET_NO>999</ELEMENT_SET_NO><REV_AT_EPOCH>3154</REV_AT_EPOCH><BSTAR>.40258393E-4</BSTAR><MEAN_MOTION_DOT>.83E-6</MEAN_MOTION_DOT><MEAN_MOTION_DDOT>0</MEAN_MOTION_DDOT></tleParameters></data></segment></body></omm>
<omm id="CCSDS_OMM_VERS" version="2.0">
<header><CREATION_DATE/><ORIGINATOR/></header><body><segment><metadata><OBJECT_NAME>KUIPER-00042</OBJECT_NAME><OBJECT_ID>2025-134D</OBJECT_ID><CENTER_NAME>EARTH</CENTER_NAME><REF_FRAME>TEME</REF_FRAME><TIME_SYSTEM>UTC</TIME_SYSTEM><MEAN_ELEMENT_THEORY>SGP4</MEAN_ELEMENT_THEORY></metadata><data><meanElements><EPOCH>2026-01-11T15:00:33.805728</EPOCH><MEAN_MOTION>14.79939458</MEAN_MOTION><ECCENTRICITY>.00125199</ECCENTRICITY><INCLINATION>51.8973</INCLINATION><RA_OF_ASC_NODE>133.9339</RA_OF_ASC_NODE><ARG_OF_PERICENTER>91.7697</ARG_OF_PERICENTER><MEAN_ANOMALY>268.4699</MEAN_ANOMALY></meanElements><tleParameters><EPHEMERIS_TYPE>0</EPHEMERIS_TYPE><CLASSIFICATION_TYPE>U</CLASSIFICATION_TYPE><NORAD_CAT_ID>64503</NORAD_CAT_ID><ELEMENT_SET_NO>999</ELEMENT_SET_NO><REV_AT_EPOCH>3150</REV_AT_EPOCH><BSTAR>.12933606E-2</BSTAR><MEAN_MOTION_DOT>.9664E-4</MEAN_MOTION_DOT><MEAN_MOTION_DDOT>0</MEAN_MOTION_DDOT></tleParameters></data></segment></body></omm>
<omm id="CCSDS_OMM_VERS" version="2.0">
<header><CREATION_DATE/><ORIGINATOR/></header><body><segment><metadata><OBJECT_NAME>KUIPER-00043</OBJECT_NAME><OBJECT_ID>2025-134E</OBJECT_ID><CENTER_NAME>EARTH</CENTER_NAME><REF_FRAME>TEME</REF_FRAME><TIME_SYSTEM>UTC</TIME_SYSTEM><MEAN_ELEMENT_THEORY>SGP4</MEAN_ELEMENT_THEORY></metadata><data><meanElements><EPOCH>2026-01-12T07:24:31.104576</EPOCH><MEAN_MOTION>14.79928231</MEAN_MOTION><ECCENTRICITY>.00029235</ECCENTRICITY><INCLINATION>51.9008</INCLINATION><RA_OF_ASC_NODE>123.3627</RA_OF_ASC_NODE><ARG_OF_PERICENTER>116.3466</ARG_OF_PERICENTER><MEAN_ANOMALY>243.7797</MEAN_ANOMALY></meanElements><tleParameters><EPHEMERIS_TYPE>0</EPHEMERIS_TYPE><CLASSIFICATION_TYPE>U</CLASSIFICATION_TYPE><NORAD_CAT_ID>64504</NORAD_CAT_ID><ELEMENT_SET_NO>999</ELEMENT_SET_NO><REV_AT_EPOCH>3171</REV_AT_EPOCH><BSTAR>.63159831E-3</BSTAR><MEAN_MOTION_DOT>.4596E-4</MEAN_MOTION_DOT><MEAN_MOTION_DDOT>0</MEAN_MOTION_DDOT></tleParameters></data></segment></body></omm>

</ndm>
